USA 167                 
1 27691U 03008A   26199.58864397 -.00000007  00000+0  00000+0 0  9999
2 27691  11.0223  43.1234 0003559 314.6262  28.7703  1.00270365  7085
USA 169 (MILSTAR-2 4)   
1 27711U 03012A   26199.45288924 -.00000208  00000+0  00000+0 0  9992
2 27711  12.3961  29.5838 0099434  10.3756 211.4951  1.00273132 33264
ASIASAT 4               
1 27718U 03014A   26199.62538666 -.00000231  00000+0  00000+0 0  9997
2 27718   4.7813  75.3481 0002822  42.2437 191.5230  1.00271877 45614
HELLAS-SAT 2            
1 27811U 03020A   26199.40645126 -.00000095  00000+0  00000+0 0  9992
2 27811   7.4304  67.5073 0003824  82.9404 282.0485  1.00271841 43168
THURAYA-2               
1 27825U 03026A   26199.70230066  .00000115  00000+0  00000+0 0  9991
2 27825   8.8862  31.8257 0002380  27.4177 174.0939  1.00272698 84667
OPTUS C1                
1 27831U 03028B   26199.64159557 -.00000163  00000+0  00000+0 0  9992
2 27831   6.9665  69.0253 0005335  43.8234 210.2274  1.00269179 53371
USA 170                 
1 27875U 03040A   26199.20461437  .00000114  00000+0  00000+0 0  9994
2 27875  10.5644  47.6494 0001862  73.3862 272.9158  1.00276124 33307
GALAXY 13 (HORIZONS-1)  
1 27954U 03044A   26199.73519049  .00000125  00000+0  00000+0 0  9999
2 27954   1.4978  83.4547 0002103  36.4231 291.3131  1.00272872 46889
YAMAL 202               
1 28089U 03053A   26199.61875911 -.00000090  00000+0  00000+0 0  9991
2 28089   6.4193  70.5541 0003161  45.1551 206.9942  1.00271678 83012
UFO 11 (USA 174)        
1 28117U 03057A   26199.56600416 -.00000114  00000+0  00000+0 0  9994
2 28117   8.9519  33.6512 0002766 101.6627  80.3722  1.00270705 82764
USA 176 (DSP 22)        
1 28158U 04004A   26199.39865123 -.00000308  00000+0  00000+0 0  9996
2 28158  12.1042  25.8365 0001123 302.9001  61.4571  1.00264981 33255
ABS-4 (MOBISAT-1)       
1 28184U 04007A   26198.90262516  .00000027  00000+0  00000+0 0  9998
2 28184   6.1161  71.6293 0004573  47.9675 202.0344  1.00274106 52648
INTELSAT 10-02          
1 28358U 04022A   26199.75670076 -.00000018  00000+0  00000+0 0  9997
2 28358   0.0528 253.9863 0000147 356.2154 317.7541  1.00270531 80877
ANIK F2                 
1 28378U 04027A   26199.58513499 -.00000058  00000+0  00000+0 0  9994
2 28378   3.3670  79.0267 0003649  33.7022 283.1726  1.00271717 41571
AMC-15                  
1 28446U 04041A   26199.58308632 -.00000096  00000+0  00000+0 0  9999
2 28446   0.0418 284.7190 0002293 189.5733 286.9462  1.00271569 79613
NSS-10                  
1 28526U 05003A   26199.47236876 -.00000262  00000+0  00000+0 0  9990
2 28526   6.5266  70.0708 0002776  43.0537 315.7453  1.00272225 53463
INMARSAT 4-F1           
1 28628U 05009A   26199.72895045  .00000024  00000+0  00000+0 0  9991
2 28628   5.2106  42.7946 0002671  73.2874 260.9597  1.00272043 77989
DIRECTV 8               
1 28659U 05019A   26199.74125718 -.00000005  00000+0  00000+0 0  9991
2 28659   0.0187  61.6379 0003037  61.4430 321.2488  1.00272165 77388
GALAXY 28 (G-28)        
1 28702U 05022A   26199.75954392 -.00000208  00000+0  00000+0 0  9998
2 28702   3.3769  78.5412 0002471  33.7103  70.6442  1.00271220 52293
THAICOM 4               
1 28786U 05028A   26199.80669727 -.00000369  00000+0  00000+0 0  9995
2 28786   0.3251  85.5265 0001590   7.7258 253.2566  1.00272592 52564
ANIK F1R                
1 28868U 05036A   26199.58308632 -.00000084  00000+0  00000+0 0  9999
2 28868   4.3912  76.1883 0003923  20.5410 302.2521  1.00271896 46767
SYRACUSE 3A             
1 28885U 05041B   26199.84828700  .00000121  00000+0  00000+0 0  9997
2 28885   4.7191  75.4478 0002682  33.1391 180.0769  1.00269966 76067
INMARSAT 4-F2           
1 28899U 05044A   26199.90253028 -.00000269  00000+0  00000+0 0  9991
2 28899   5.1362  43.6786 0002862  61.0773 300.3446  1.00271259 75842
METEOSAT-9 (MSG-2)      
1 28912U 05049B   26199.70264734  .00000113  00000+0  00000+0 0  9993
2 28912   9.4311  53.8532 0002367 357.7093 183.5651  1.00274029  7315
EUTELSAT 174A           
1 28924U 05052A   26199.71989221  .00000000  00000+0  00000+0 0  9991
2 28924   4.2968  76.1368 0005971  41.8235 251.6630  1.00272317 52645
ECHOSTAR 10             
1 28935U 06003A   26199.58308632 -.00000062  00000+0  00000+0 0  9995
2 28935   0.0470 286.0784 0001643 148.8980 321.1321  1.00271079 74772
SPAINSAT                
1 28945U 06007A   26199.26159686 -.00000225  00000+0  00000+0 0  9999
2 28945   0.6419  86.0282 0004818  26.9623 247.0407  1.00273164 74532
JCSAT-5A                
1 29045U 06010A   26199.90874303 -.00000334  00000+0  00000+0 0  9997
2 29045   1.1895  83.8585 0001833  23.6228 288.4144  1.00272544 74086
ASTRA 1KR               
1 29055U 06012A   26199.91611126  .00000112  00000+0  00000+0 0  9996
2 29055   0.5540  83.1890 0003436  26.8684 175.4414  1.00272468 46013
GALAXY 16 (G-16)        
1 29236U 06023A   26199.67404721 -.00000134  00000+0  00000+0 0  9998
2 29236   0.0244 146.3120 0002629 330.7179 323.0864  1.00271555 73282
EUTELSAT 33F            
1 29270U 06032A   26199.93887701  .00000149  00000+0  00000+0 0  9993
2 29270   1.7419  81.8893 0003558  32.1530 193.7631  1.00274095 47623
JCSAT-3A                
1 29272U 06033A   26199.75536814 -.00000351  00000+0  00000+0 0  9998
2 29272   0.0407 253.7010 0002223 227.8406 214.9492  1.00271862 48056
