OBJECT_NAME,OBJECT_ID,EPOCH,MEAN_MOTION,ECCENTRICITY,INCLINATION,RA_OF_ASC_NODE,ARG_OF_PERICENTER,MEAN_ANOMALY,EPHEMERIS_TYPE,CLASSIFICATION_TYPE,NORAD_CAT_ID,ELEMENT_SET_NO,REV_AT_EPOCH,BSTAR,MEAN_MOTION_DOT,MEAN_MOTION_DDOT
USA 167,2003-008A,2026-07-18T14:07:38.839008,1.00270365,.00035595,11.0223,43.1234,314.6262,28.7703,0,U,27691,999,708,0,-.7E-7,0
USA 169 (MILSTAR-2 4),2003-012A,2026-07-18T10:52:09.630336,1.00273132,.00994348,12.3961,29.5838,10.3756,211.4951,0,U,27711,999,3326,0,-.208E-5,0
ASIASAT 4,2003-014A,2026-07-18T15:00:33.407424,1.00271877,.00028229,4.7813,75.3481,42.2437,191.5230,0,U,27718,999,4561,0,-.231E-5,0
HELLAS-SAT 2,2003-020A,2026-07-18T09:45:17.388864,1.00271841,.00038247,7.4304,67.5073,82.9404,282.0485,0,U,27811,999,4316,0,-.95E-6,0
THURAYA-2,2003-026A,2026-07-18T16:51:18.777024,1.00272698,.00023803,8.8862,31.8257,27.4177,174.0939,0,U,27825,999,8466,0,.115E-5,0
OPTUS C1,2003-028B,2026-07-18T15:23:53.857248,1.00269179,.0005335,6.9665,69.0253,43.8234,210.2274,0,U,27831,999,5337,0,-.163E-5,0
USA 170,2003-040A,2026-07-18T04:54:38.681568,1.00276124,.00018621,10.5644,47.6494,73.3862,272.9158,0,U,27875,999,3330,0,.114E-5,0
GALAXY 13 (HORIZONS-1),2003-044A,2026-07-18T17:38:40.458336,1.00272872,.00021038,1.4978,83.4547,36.4231,291.3131,0,U,27954,999,4688,0,.125E-5,0
YAMAL 202,2003-053A,2026-07-18T14:51:00.787104,1.00271678,.00031614,6.4193,70.5541,45.1551,206.9942,0,U,28089,999,8301,0,-.9E-6,0
UFO 11 (USA 174),2003-057A,2026-07-18T13:35:02.759424,1.00270705,.0002766,8.9519,33.6512,101.6627,80.3722,0,U,28117,999,8276,0,-.114E-5,0
USA 176 (DSP 22),2004-004A,2026-07-18T09:34:03.466272,1.00264981,.00011236,12.1042,25.8365,302.9001,61.4571,0,U,28158,999,3325,0,-.308E-5,0
ABS-4 (MOBISAT-1),2004-007A,2026-07-17T21:39:46.813824,1.00274106,.00045732,6.1161,71.6293,47.9675,202.0344,0,U,28184,999,5264,0,.27E-6,0
INTELSAT 10-02,2004-022A,2026-07-18T18:09:38.945664,1.00270531,.00001474,0.0528,253.9863,356.2154,317.7541,0,U,28358,999,8087,0,-.18E-6,0
ANIK F2,2004-027A,2026-07-18T14:02:35.663136,1.00271717,.0003649,3.3670,79.0267,33.7022,283.1726,0,U,28378,999,4157,0,-.58E-6,0
AMC-15,2004-041A,2026-07-18T13:59:38.658048,1.00271569,.00022939,0.0418,284.7190,189.5733,286.9462,0,U,28446,999,7961,0,-.96E-6,0
NSS-10,2005-003A,2026-07-18T11:20:12.660864,1.00272225,.00027762,6.5266,70.0708,43.0537,315.7453,0,U,28526,999,5346,0,-.262E-5,0
INMARSAT 4-F1,2005-009A,2026-07-18T17:29:41.318880,1.00272043,.00026712,5.2106,42.7946,73.2874,260.9597,0,U,28628,999,7798,0,.24E-6,0
DIRECTV 8,2005-019A,2026-07-18T17:47:24.620352,1.00272165,.00030371,0.0187,61.6379,61.4430,321.2488,0,U,28659,999,7738,0,-.5E-7,0
GALAXY 28 (G-28),2005-022A,2026-07-18T18:13:44.594688,1.00271220,.00024717,3.3769,78.5412,33.7103,70.6442,0,U,28702,999,5229,0,-.208E-5,0
THAICOM 4,2005-028A,2026-07-18T19:21:38.644128,1.00272592,.00015902,0.3251,85.5265,7.7258,253.2566,0,U,28786,999,5256,0,-.369E-5,0
ANIK F1R,2005-036A,2026-07-18T13:59:38.658048,1.00271896,.00039239,4.3912,76.1883,20.5410,302.2521,0,U,28868,999,4676,0,-.84E-6,0
SYRACUSE 3A,2005-041B,2026-07-18T20:21:31.996800,1.00269966,.00026821,4.7191,75.4478,33.1391,180.0769,0,U,28885,999,7606,0,.121E-5,0
INMARSAT 4-F2,2005-044A,2026-07-18T21:39:38.616192,1.00271259,.00028629,5.1362,43.6786,61.0773,300.3446,0,U,28899,999,7584,0,-.269E-5,0
METEOSAT-9 (MSG-2),2005-049B,2026-07-18T16:51:48.730176,1.00274029,.00023673,9.4311,53.8532,357.7093,183.5651,0,U,28912,999,731,0,.113E-5,0
EUTELSAT 174A,2005-052A,2026-07-18T17:16:38.686944,1.00272317,.00059714,4.2968,76.1368,41.8235,251.6630,0,U,28924,999,5264,0,0,0
ECHOSTAR 10,2006-003A,2026-07-18T13:59:38.658048,1.00271079,.0001643,0.0470,286.0784,148.8980,321.1321,0,U,28935,999,7477,0,-.62E-6,0
SPAINSAT,2006-007A,2026-07-18T06:16:41.968704,1.00273164,.00048185,0.6419,86.0282,26.9623,247.0407,0,U,28945,999,7453,0,-.225E-5,0
JCSAT-5A,2006-010A,2026-07-18T21:48:35.397792,1.00272544,.0001833,1.1895,83.8585,23.6228,288.4144,0,U,29045,999,7408,0,-.334E-5,0
ASTRA 1KR,2006-012A,2026-07-18T21:59:12.012864,1.00272468,.00034361,0.5540,83.1890,26.8684,175.4414,0,U,29055,999,4601,0,.112E-5,0
GALAXY 16 (G-16),2006-023A,2026-07-18T16:10:37.678944,1.00271555,.00026293,0.0244,146.3120,330.7179,323.0864,0,U,29236,999,7328,0,-.134E-5,0
EUTELSAT 33F,2006-032A,2026-07-18T22:31:58.973664,1.00274095,.0003558,1.7419,81.8893,32.1530,193.7631,0,U,29270,999,4762,0,.149E-5,0
JCSAT-3A,2006-033A,2026-07-18T18:07:43.807296,1.00271862,.0002223,0.0407,253.7010,227.8406,214.9492,0,U,29272,999,4805,0,-.351E-5,0
